SENTINEL-6              
1 46984U 20086A   24136.12744369 -.00000029  00000+0  13842-3 0  9991
2 46984  66.0414 279.9333 0007776 270.6083  89.4041 12.80931012162713
